H1 CPF 01  gfz 2021 10 31 00  8041 tandemx   
H2 1003001  6202 36605    2021 10 31 00 59 42 2021 11 05 00 00 42   120 1 1  0 0 0
H9
10 0 59520  46062.000000  0     622379.807  -1340704.360   6717454.662
10 0 59520  46182.000000  0     398078.031  -2207246.363   6502695.390
10 0 59520  46302.000000  0     152039.557  -3031155.007   6173659.184
10 0 59520  46422.000000  0    -110569.159  -3797703.992   5736097.478
10 0 59520  46542.000000  0    -384041.726  -4493250.617   5197664.618
10 0 59520  46662.000000  0    -662250.612  -5105482.255   4567792.131
10 0 59520  46782.000000  0    -938779.449  -5623643.982   3857531.028
10 0 59520  46902.000000  0   -1207065.543  -6038737.877   3079360.033
10 0 59520  47022.000000  0   -1460548.647  -6343688.240   2246966.605
10 0 59520  47142.000000  0   -1692822.898  -6533471.744   1375004.911
10 0 59520  47262.000000  0   -1897789.566  -6605207.532    478832.010
10 0 59520  47382.000000  0   -2069803.650  -6558203.195   -425770.920
10 0 59520  47502.000000  0   -2203811.961  -6393956.867  -1322885.275
10 0 59520  47622.000000  0   -2295479.568  -6116115.385  -2196743.509
10 0 59520  47742.000000  0   -2341301.569  -5730389.818  -3032013.639
10 0 59520  47862.000000  0   -2338696.980  -5244429.922  -3814073.655
10 0 59520  47982.000000  0   -2286082.265  -4667661.334  -4529268.723
10 0 59520  48102.000000  0   -2182923.364  -4011091.732  -5165146.098
10 0 59520  48222.000000  0   -2029765.854  -3287091.619  -5710665.059
10 0 59520  48342.000000  0   -1828242.914  -2509154.488  -6156379.873
10 0 59520  48462.000000  0   -1581060.479  -1691640.564  -6494593.030
10 0 59520  48582.000000  0   -1291960.640   -849510.424  -6719476.207
10 0 59520  48702.000000  0    -965665.225      1946.289  -6827159.937
10 0 59520  48822.000000  0    -607799.425    847382.899  -6815792.363
10 0 59520  48942.000000  0    -224796.214   1671665.051  -6685567.421
10 0 59520  49062.000000  0     176215.427   2460134.315  -6438721.893
10 0 59520  49182.000000  0     587539.067   3198863.723  -6079503.332
10 0 59520  49302.000000  0    1001055.223   3874901.924  -5614104.742
10 0 59520  49422.000000  0    1408376.997   4476499.896  -5050567.483
10 0 59520  49542.000000  0    1801016.151   4993319.306  -4398654.671
10 0 59520  49662.000000  0    2170556.831   5416618.082  -3669692.257
10 0 59520  49782.000000  0    2508832.699   5739407.327  -2876380.704
10 0 59520  49902.000000  0    2808104.553   5956577.828  -2032579.983
10 0 59520  50022.000000  0    3061234.399   6064991.902  -1153069.404
10 0 59520  50142.000000  0    3261850.720   6063536.941   -253286.191
10 0 59520  50262.000000  0    3404500.209   5953138.028    650951.215
10 0 59520  50382.000000  0    3484782.610   5736729.385   1543728.263
10 0 59520  50502.000000  0    3499465.679   5419186.295   2409322.282
10 0 59520  50622.000000  0    3446575.868   5007218.405   3232488.209
10 0 59520  50742.000000  0    3325463.514   4509224.803   3998734.897
10 0 59520  50862.000000  0    3136841.295   3935117.993   4694584.601
10 0 59520  50982.000000  0    2882791.240   3296119.617   5307814.499
10 0 59520  51102.000000  0    2566743.337   2604532.487   5827668.369
10 0 59520  51222.000000  0    2193429.818   1873498.502   6245040.379
10 0 59520  51342.000000  0    1768812.692   1116744.148   6552630.329
10 0 59520  51462.000000  0    1299985.443    348319.360   6745064.467
10 0 59520  51582.000000  0     795052.672   -417662.733   6818983.054
10 0 59520  51702.000000  0     262989.569  -1167284.438   6773096.918
10 0 59520  51822.000000  0    -286517.960  -1887076.691   6608208.503
10 0 59520  51942.000000  0    -843249.705  -2564261.023   6327198.121
10 0 59520  52062.000000  0   -1396640.173  -3186976.751   5934975.114
10 0 59520  52182.000000  0   -1935976.226  -3744489.439   5438397.028
10 0 59520  52302.000000  0   -2450604.206  -4227379.687   4846157.891
10 0 59520  52422.000000  0   -2930143.012  -4627708.832   4168642.969
10 0 59520  52542.000000  0   -3364696.819  -4939156.322   3417750.255
10 0 59520  52662.000000  0   -3745061.216  -5157125.511   2606682.176
10 0 59520  52782.000000  0   -4062918.810  -5278815.923   1749712.662
10 0 59520  52902.000000  0   -4311021.411  -5303260.296    861932.169
10 0 59520  53022.000000  0   -4483352.921  -5231324.166    -41024.436
10 0 59520  53142.000000  0   -4575269.022  -5065668.598   -943261.217
10 0 59520  53262.000000  0   -4583609.519  -4810676.292  -1828910.682
10 0 59520  53382.000000  0   -4506779.671  -4472342.077  -2682421.817
10 0 59520  53502.000000  0   -4344799.078  -4058131.654  -3488839.060
10 0 59520  53622.000000  0   -4099317.656  -3576813.776  -4234066.532
10 0 59520  53742.000000  0   -3773599.323  -3038270.495  -4905113.062
10 0 59520  53862.000000  0   -3372474.105  -2453289.624  -5490313.894
10 0 59520  53982.000000  0   -2902260.372  -1833345.207  -5979525.013
10 0 59520  54102.000000  0   -2370660.070  -1190370.850  -6364289.037
10 0 59520  54222.000000  0   -1786627.895   -536529.966  -6637970.452
10 0 59520  54342.000000  0   -1160218.034    116011.882  -6795857.834
10 0 59520  54462.000000  0    -502413.045    755307.921  -6835235.067
10 0 59520  54582.000000  0     175064.794   1369843.250  -6755423.286
10 0 59520  54702.000000  0     859956.248   1948736.336  -6557791.523
10 0 59520  54822.000000  0    1539681.996   2481927.934  -6245738.130
10 0 59520  54942.000000  0    2201569.129   2960354.026  -5824638.349
10 0 59520  55062.000000  0    2833083.828   3376100.094  -5301760.647
10 0 59520  55182.000000  0    3422066.168   3722533.575  -4686152.362
10 0 59520  55302.000000  0    3956965.045   3994414.669  -3988495.181
10 0 59520  55422.000000  0    4427068.223   4187981.219  -3220929.660
10 0 59520  55542.000000  0    4822722.190   4301005.444  -2396850.481
10 0 59520  55662.000000  0    5135535.379   4332820.408  -1530676.101
10 0 59520  55782.000000  0    5358561.470   4284315.766   -637596.186
10 0 59520  55902.000000  0    5486455.780   4157901.903    266698.685
10 0 59520  56022.000000  0    5515601.971   3957443.865   1166298.491
10 0 59520  56142.000000  0    5444205.899   3688164.739   2045362.010
10 0 59520  56262.000000  0    5272352.356   3356520.860   2888404.971
10 0 59520  56382.000000  0    5002022.466   2970053.335   3680581.474
10 0 59520  56502.000000  0    4637072.376   2537218.568   4407952.083
10 0 59520  56622.000000  0    4183174.208   2067202.065   5057730.835
10 0 59520  56742.000000  0    3647722.952   1569723.796   5618511.308
10 0 59520  56862.000000  0    3039706.801   1054835.180   6080465.159
10 0 59520  56982.000000  0    2369548.765    532713.909   6435507.646
10 0 59520  57102.000000  0    1648923.548     13463.560   6677431.716
10 0 59520  57222.000000  0     890551.785   -493080.650   6802012.396
10 0 59520  57342.000000  0     107973.021   -977538.147   6807076.733
10 0 59520  57462.000000  0    -684696.584  -1431156.121   6692538.307
10 0 59520  57582.000000  0   -1473018.465  -1845967.653   6460397.767
10 0 59520  57702.000000  0   -2242493.002  -2214931.301   6114708.549
10 0 59520  57822.000000  0   -2978824.098  -2532050.385   5661511.957
10 0 59520  57942.000000  0   -3668187.717  -2792473.305   5108740.220
10 0 59520  58062.000000  0   -4297496.766  -2992570.232   4466082.132
10 0 59520  58182.000000  0   -4854654.636  -3129984.249   3744817.011
10 0 59520  58302.000000  0   -5328793.811  -3203656.090   2957619.759
10 0 59520  58422.000000  0   -5710495.230  -3213822.876   2118339.761
10 0 59520  58542.000000  0   -5991983.287  -3161990.725   1241754.654
10 0 59520  58662.000000  0   -6167289.327  -3050879.924    343303.661
10 0 59520  58782.000000  0   -6232379.999  -2884344.251   -561191.691
10 0 59520  58902.000000  0   -6185247.921  -2667267.427  -1455815.608
10 0 59520  59022.000000  0   -6025959.536  -2405437.747  -2324847.924
10 0 59520  59142.000000  0   -5756660.533  -2105405.738  -3153046.712
10 0 59520  59262.000000  0   -5381540.761  -1774328.762  -3925919.485
10 0 59520  59382.000000  0   -4906758.875  -1419806.274  -4629977.125
10 0 59520  59502.000000  0   -4340330.326  -1049710.129  -5252966.235
10 0 59520  59622.000000  0   -3691980.596   -672013.454  -5784076.056
10 0 59520  59742.000000  0   -2972968.522   -294622.662  -6214115.967
10 0 59520  59862.000000  0   -2195884.585     74783.955  -6535662.761
10 0 59520  59982.000000  0   -1374427.536    428907.487  -6743177.256
10 0 59520  60102.000000  0    -523164.073    760967.260  -6833089.119
10 0 59520  60222.000000  0     342724.358   1064827.063  -6803850.959
10 0 59520  60342.000000  0    1207704.508   1335104.574  -6655962.484
10 0 59520  60462.000000  0    2056164.042   1567264.730  -6391965.433
10 0 59520  60582.000000  0    2872687.999   1757695.443  -6016404.443
10 0 59520  60702.000000  0    3642335.054   1903763.330  -5535756.073
10 0 59520  60822.000000  0    4350908.362   2003849.315  -4958327.795
10 0 59520  60942.000000  0    4985220.117   2057364.313  -4294126.570
10 0 59520  61062.000000  0    5533342.916   2064743.429  -3554695.298
10 0 59520  61182.000000  0    5984841.906   2027418.514  -2752920.894
10 0 59520  61302.000000  0    6330984.686   1947769.889  -1902815.988
10 0 59520  61422.000000  0    6564921.861   1829057.826  -1019274.807
10 0 59520  61542.000000  0    6681832.885   1675334.239   -117809.894
10 0 59520  61662.000000  0    6679032.702   1491336.670    785726.953
10 0 59520  61782.000000  0    6556035.103   1282368.126   1675429.799
10 0 59520  61902.000000  0    6314575.275   1054164.953   2535627.584
10 0 59520  62022.000000  0    5958584.566    812755.367   3351169.566
10 0 59520  62142.000000  0    5494121.931    564313.840   4107699.377
10 0 59520  62262.000000  0    4929261.470    315014.179   4791911.905
10 0 59520  62382.000000  0    4273943.595     70886.366   5391788.318
10 0 59520  62502.000000  0    3539789.508   -162321.900   5896806.887
99
